STARLINK-4214           
1 52877U 22062AZ  26068.26250873 -.00001070  00000+0 -49117-4 0  9991
2 52877  53.2188  16.0502 0001139  95.1716 264.9407 15.08849130206004
LEMUR-2-MARHISYAM       
1 60536U 24149BW  26068.74036894  .00013075  00000+0  82973-3 0  9990
2 60536  97.6912 151.2662 0003578 107.3271 252.8349 15.09015520 85478
